[{"OBJECT_NAME":"STARLINK-6243","OBJECT_ID":"2023-088AJ","EPOCH":"2026-03-09T22:00:01.999584","MEAN_MOTION":15.07357307,"ECCENTRICITY":9.702e-5,"INCLINATION":43.0004,"RA_OF_ASC_NODE":93.533,"ARG_OF_PERICENTER":272.2621,"MEAN_ANOMALY":329.8438,"EPHEMERIS_TYPE":0,"CLASSIFICATION_TYPE":"U","NORAD_CAT_ID":57080,"ELEMENT_SET_NO":999,"REV_AT_EPOCH":577,"BSTAR":0.003138405,"MEAN_MOTION_DOT":0.00048374,"MEAN_MOTION_DDOT":0},{"OBJECT_NAME":"LEMUR-2-SIERRINI","OBJECT_ID":"2024-149DR","EPOCH":"2026-03-09T19:24:50.445216","MEAN_MOTION":15.08682764,"ECCENTRICITY":0.00065795,"INCLINATION":97.6873,"RA_OF_ASC_NODE":151.1225,"ARG_OF_PERICENTER":147.8458,"MEAN_ANOMALY":212.3173,"EPHEMERIS_TYPE":0,"CLASSIFICATION_TYPE":"U","NORAD_CAT_ID":60579,"ELEMENT_SET_NO":999,"REV_AT_EPOCH":8546,"BSTAR":0.00092040134,"MEAN_MOTION_DOT":0.00014386,"MEAN_MOTION_DDOT":0}]
